SWARM B                 
1 39451U 13067A   26198.90146253  .00001927  00000+0  67753-4 0  9995
2 39451  87.7463 332.9866 0002241  85.0915 275.0590 15.28727502687933
SWARM A                 
1 39452U 13067B   26198.79754739  .00005840  00000+0  98169-4 0  9990
2 39452  87.3296  44.8578 0003336  92.4588 267.7055 15.51489199710997
SWARM C                 
1 39453U 13067C   26198.92645500  .00005891  00000+0  99039-4 0  9994
2 39453  87.3296  43.3907 0003327  92.6891 267.4752 15.51490162710978
BRITE-CA1 (TORONTO)     
1 40020U 14033L   26198.88428013  .00000523  00000+0  86054-4 0  9993
2 40020  97.9775 327.2528 0078657 177.6498 182.5095 14.72725699646734
OCO 2                   
1 40059U 14035A   26198.91919363  .00000170  00000+0  47747-4 0  9998
2 40059  98.2020 139.7457 0001428  81.1275 279.0085 14.57133406640528
BRITE-PL2 (HEWELIUSZ)   
1 40119U 14049B   26198.83391316  .00000566  00000+0  57609-4 0  9990
2 40119  97.9121 311.0758 0014076  13.6033 346.5563 14.94690566646025
MMS 1                   
1 40482U 15011A   26199.00002315 -.00001303  00000+0  00000+0 0  9990
2 40482  72.4606 348.4221 8302220 168.1029 201.6375  0.28339163  1362
MMS 2                   
1 40483U 15011B   26199.00002315 -.00001303  00000+0  00000+0 0  9991
2 40483  72.4645 348.4211 8305033 168.1056 201.6245  0.28339106  1363
MMS 3                   
1 40484U 15011C   26199.00002315 -.00001303  00000+0  00000+0 0  9992
2 40484  72.4643 348.4329 8303376 168.1120 201.6065  0.28338290  1332
MMS 4                   
1 40485U 15011D   26199.00002315 -.00001303  00000+0  00000+0 0  9993
2 40485  72.4598 348.4164 8303352 168.1232 201.5940  0.28339143  1369
ASTROSAT                
1 40930U 15052A   26198.90221392  .00001077  00000+0  49457-4 0  9990
2 40930   5.9973 294.2667 0007418 115.5026 244.5870 14.82554363584397
DAMPE                   
1 41173U 15078A   26198.95593931  .00000440  00000+0  17356-4 0  9990
2 41173  97.4561 204.5764 0011294 335.4360  24.6341 15.30856685589255
PISAT                   
1 41784U 16059B   26198.93173285  .00000431  00000+0  81024-4 0  9995
2 41784  97.8192 198.0656 0030517 106.4756 253.9808 14.69032391524253
HXMT (HUIYAN)           
1 42758U 17034A   26198.91649127  .00002134  00000+0  11130-3 0  9994
2 42758  43.0153  11.9019 0031957 337.8105  22.1359 15.18702368502333
FLYING LAPTOP           
1 42831U 17042G   26198.91270994  .00002033  00000+0  16186-3 0  9991
2 42831  97.4820 353.2918 0019597  23.8192 336.3935 15.01324030491068
ZHANGHENG 1-01 (CSES-1) 
1 43194U 18015C   26198.93078598  .00003937  00000+0  18219-3 0  9996
2 43194  97.6898   5.2037 0016625 155.8196 204.3823 15.20629588469313
SALSAT                  
1 46495U 20068K   26198.94923409  .00004039  00000+0  14103-3 0  9997
2 46495  97.8860 203.8975 0009519 182.9906 177.1278 15.30194622320068
IXPE                    
1 49954U 21121A   26199.00002315  .00006409  00000+0  32329-3 0  9996
2 49954   0.2302  83.9041 0007253 184.5817  17.5785 15.10503624  5843
SMILE                   
1 69123U 26109A   26194.95939329  .00000936  00000+0  00000+0 0  9996
2 69123  70.0512 206.6048 8313707 286.9544   0.1879  0.47500629    65
