OBJECT_NAME,OBJECT_ID,EPOCH,MEAN_MOTION,ECCENTRICITY,INCLINATION,RA_OF_ASC_NODE,ARG_OF_PERICENTER,MEAN_ANOMALY,EPHEMERIS_TYPE,CLASSIFICATION_TYPE,NORAD_CAT_ID,ELEMENT_SET_NO,REV_AT_EPOCH,BSTAR,MEAN_MOTION_DOT,MEAN_MOTION_DDOT
SWARM B,2013-067A,2026-07-17T21:38:06.362592,15.28727502,.00022419,87.7463,332.9866,85.0915,275.0590,0,U,39451,999,68793,.67752974E-4,.1927E-4,0
SWARM A,2013-067B,2026-07-17T19:08:28.094496,15.51489199,.00033366,87.3296,44.8578,92.4588,267.7055,0,U,39452,999,71099,.98169012E-4,.584E-4,0
SWARM C,2013-067C,2026-07-17T22:14:05.712000,15.51490162,.00033274,87.3296,43.3907,92.6891,267.4752,0,U,39453,999,71097,.99038614E-4,.5891E-4,0
BRITE-CA1 (TORONTO),2014-033L,2026-07-17T21:13:21.803232,14.72725699,.00786579,97.9775,327.2528,177.6498,182.5095,0,U,40020,999,64673,.86054124E-4,.523E-5,0
OCO 2,2014-035A,2026-07-17T22:03:38.329632,14.57133406,.00014288,98.2020,139.7457,81.1275,279.0085,0,U,40059,999,64052,.47746951E-4,.17E-5,0
BRITE-PL2 (HEWELIUSZ),2014-049B,2026-07-17T20:00:50.097024,14.94690566,.00140762,97.9121,311.0758,13.6033,346.5563,0,U,40119,999,64602,.57608523E-4,.566E-5,0
MMS 1,2015-011A,2026-07-18T00:00:02.000160,0.28339163,.830222,72.4606,348.4221,168.1029,201.6375,0,U,40482,999,136,0,-.1303E-4,0
MMS 2,2015-011B,2026-07-18T00:00:02.000160,0.28339106,.83050332,72.4645,348.4211,168.1056,201.6245,0,U,40483,999,136,0,-.1303E-4,0
MMS 3,2015-011C,2026-07-18T00:00:02.000160,0.28338290,.8303376,72.4643,348.4329,168.1120,201.6065,0,U,40484,999,133,0,-.1303E-4,0
MMS 4,2015-011D,2026-07-18T00:00:02.000160,0.28339143,.83033529,72.4598,348.4164,168.1232,201.5940,0,U,40485,999,136,0,-.1303E-4,0
ASTROSAT,2015-052A,2026-07-17T21:39:11.282688,14.82554363,.00074182,5.9973,294.2667,115.5026,244.5870,0,U,40930,999,58439,.49457086E-4,.1077E-4,0
DAMPE,2015-078A,2026-07-17T22:56:33.156384,15.30856685,.00112943,97.4561,204.5764,335.4360,24.6341,0,U,41173,999,58925,.1735643E-4,.44E-5,0
PISAT,2016-059B,2026-07-17T22:21:41.718240,14.69032391,.00305179,97.8192,198.0656,106.4756,253.9808,0,U,41784,999,52425,.81024469E-4,.431E-5,0
HXMT (HUIYAN),2017-034A,2026-07-17T21:59:44.845728,15.18702368,.00319577,43.0153,11.9019,337.8105,22.1359,0,U,42758,999,50233,.11130254E-3,.2134E-4,0
FLYING LAPTOP,2017-042G,2026-07-17T21:54:18.138816,15.01324030,.0019597,97.4820,353.2918,23.8192,336.3935,0,U,42831,999,49106,.16186322E-3,.2033E-4,0
ZHANGHENG 1-01 (CSES-1),2018-015C,2026-07-17T22:20:19.908672,15.20629588,.00166252,97.6898,5.2037,155.8196,204.3823,0,U,43194,999,46931,.18219202E-3,.3937E-4,0
SALSAT,2020-068K,2026-07-17T22:46:53.825376,15.30194622,.00095193,97.8860,203.8975,182.9906,177.1278,0,U,46495,999,32006,.14102738E-3,.4039E-4,0
IXPE,2021-121A,2026-07-18T00:00:02.000160,15.10503624,.00072531,0.2302,83.9041,184.5817,17.5785,0,U,49954,999,584,.32328797E-3,.6409E-4,0
SMILE,2026-109A,2026-07-13T23:01:31.580256,0.47500629,.83137076,70.0512,206.6048,286.9544,0.1879,0,U,69123,999,6,0,.936E-5,0
